start=new Date('2023-01-09T00:00:00.000Z').valueOf();
sats=[{"TIME_SYSTEM":"UTC","PERIAPSIS":"561.712","REF_FRAME":"TEME","COUNTRY_CODE":"US","MEAN_MOTION":"15.01248776","ARG_OF_PERICENTER":"101.0017","MEAN_MOTION_DOT":"0.00001037","OBJECT_TYPE":"PAYLOAD","NORAD_CAT_ID":"53207","APOAPSIS":"564.381","SITE":"AFWTR","ELEMENT_SET_NO":"999","OBJECT_ID":"2022-084U","TLE_LINE1":"1 53207U 22084U   23008.60124620  .00001037  00000-0  85326-4 0  9996","MEAN_ANOMALY":"259.1424","EPHEMERIS_TYPE":"0","EPOCH":"2023-01-08T14:25:47.671680","REV_AT_EPOCH":"2586","INCLINATION":"97.6570","RCS_SIZE":"LARGE","RA_OF_ASC_NODE":"71.9327","MEAN_MOTION_DDOT":"0.0000000000000","CENTER_NAME":"EARTH","CLASSIFICATION_TYPE":"U","MEAN_ELEMENT_THEORY":"SGP4","SEMIMAJOR_AXIS":"6941.181","DECAY_DATE":null,"PERIOD":"95.920","ECCENTRICITY":"0.00019230","TLE_LINE2":"2 53207  97.6570  71.9327 0001923 101.0017 259.1424 15.01248776 25866","LAUNCH_DATE":"2022-07-22","OBJECT_NAME":"STARLINK-4413","GP_ID":"222501635","FILE":"3736460","BSTAR":"0.00008532600000"},{"EPHEMERIS_TYPE":"0","MEAN_ANOMALY":"245.9570","TLE_LINE1":"1 53208U 22084V   23008.60864993  .00000862  00000-0  71738-4 0  9998","ELEMENT_SET_NO":"999","OBJECT_ID":"2022-084V","REV_AT_EPOCH":"2586","INCLINATION":"97.6555","EPOCH":"2023-01-08T14:36:27.353952","DECAY_DATE":null,"SEMIMAJOR_AXIS":"6941.188","CLASSIFICATION_TYPE":"U","MEAN_ELEMENT_THEORY":"SGP4","RA_OF_ASC_NODE":"71.9379","RCS_SIZE":"LARGE","MEAN_MOTION_DDOT":"0.0000000000000","CENTER_NAME":"EARTH","OBJECT_NAME":"STARLINK-4425","GP_ID":"222501864","FILE":"3736460","BSTAR":"0.00007173800000","ECCENTRICITY":"0.00014320","PERIOD":"95.920","LAUNCH_DATE":"2022-07-22","TLE_LINE2":"2 53208  97.6555  71.9379 0001432 114.1804 245.9570 15.01246549 25862","REF_FRAME":"TEME","TIME_SYSTEM":"UTC","PERIAPSIS":"562.059","COUNTRY_CODE":"US","MEAN_MOTION":"15.01246549","SITE":"AFWTR","NORAD_CAT_ID":"53208","APOAPSIS":"564.047","ARG_OF_PERICENTER":"114.1804","MEAN_MOTION_DOT":"0.00000862","OBJECT_TYPE":"PAYLOAD"},{"RA_OF_ASC_NODE":"72.1259","RCS_SIZE":"LARGE","MEAN_MOTION_DDOT":"0.0000000000000","CENTER_NAME":"EARTH","DECAY_DATE":null,"SEMIMAJOR_AXIS":"6941.140","CLASSIFICATION_TYPE":"U","MEAN_ELEMENT_THEORY":"SGP4","PERIOD":"95.919","ECCENTRICITY":"0.00018250","LAUNCH_DATE":"2022-07-22","TLE_LINE2":"2 53209  97.6564  72.1259 0001825  86.9152 273.2281 15.01262226 25897","OBJECT_NAME":"STARLINK-4423","GP_ID":"222500718","FILE":"3736460","BSTAR":"0.00037679000000","TLE_LINE1":"1 53209U 22084W   23008.79959073  .00004784  00000-0  37679-3 0  9995","ELEMENT_SET_NO":"999","OBJECT_ID":"2022-084W","EPHEMERIS_TYPE":"0","MEAN_ANOMALY":"273.2281","EPOCH":"2023-01-08T19:11:24.639072","REV_AT_EPOCH":"2589","INCLINATION":"97.6564","MEAN_MOTION":"15.01262226","NORAD_CAT_ID":"53209","APOAPSIS":"564.272","ARG_OF_PERICENTER":"86.9152","OBJECT_TYPE":"PAYLOAD","MEAN_MOTION_DOT":"0.00004784","SITE":"AFWTR","TIME_SYSTEM":"UTC","PERIAPSIS":"561.738","REF_FRAME":"TEME","COUNTRY_CODE":"US"},{"REV_AT_EPOCH":"2640","INCLINATION":"97.6559","EPOCH":"2023-01-08T14:31:06.850560","MEAN_ANOMALY":"247.4375","EPHEMERIS_TYPE":"0","OBJECT_ID":"2022-084X","ELEMENT_SET_NO":"999","TLE_LINE1":"1 53210U 22084X   23008.60494040  .00002404  00000-0  19174-3 0  9992","FILE":"3736460","GP_ID":"222500947","OBJECT_NAME":"STARLINK-4427","BSTAR":"0.00019174000000","ECCENTRICITY":"0.00017490","PERIOD":"95.920","LAUNCH_DATE":"2022-07-22","TLE_LINE2":"2 53210  97.6559  71.9341 0001749 112.7034 247.4375 15.01255256 26404","CLASSIFICATION_TYPE":"U","MEAN_ELEMENT_THEORY":"SGP4","DECAY_DATE":null,"SEMIMAJOR_AXIS":"6941.161","RCS_SIZE":"LARGE","RA_OF_ASC_NODE":"71.9341","MEAN_MOTION_DDOT":"0.0000000000000","CENTER_NAME":"EARTH","COUNTRY_CODE":"US","REF_FRAME":"TEME","TIME_SYSTEM":"UTC","PERIAPSIS":"561.812","SITE":"AFWTR","ARG_OF_PERICENTER":"112.7034","MEAN_MOTION_DOT":"0.00002404","OBJECT_TYPE":"PAYLOAD","NORAD_CAT_ID":"53210","APOAPSIS":"564.240","MEAN_MOTION":"15.01255256"},{"DECAY_DATE":null,"SEMIMAJOR_AXIS":"6941.139","CLASSIFICATION_TYPE":"U","MEAN_ELEMENT_THEORY":"SGP4","RCS_SIZE":"LARGE","RA_OF_ASC_NODE":"72.2589","MEAN_MOTION_DDOT":"0.0000000000000","CENTER_NAME":"EARTH","OBJECT_NAME":"STARLINK-4419","GP_ID":"222501177","FILE":"3736460","BSTAR":"0.00038665000000","ECCENTRICITY":"0.00015910","PERIOD":"95.919","TLE_LINE2":"2 53211  97.6583  72.2589 0001591  72.2557 287.8841 15.01262625 26432","LAUNCH_DATE":"2022-07-22","EPHEMERIS_TYPE":"0","MEAN_ANOMALY":"287.8841","TLE_LINE1":"1 53211U 22084Y   23008.92895004  .00004911  00000-0  38665-3 0  9994","ELEMENT_SET_NO":"999","OBJECT_ID":"2022-084Y","REV_AT_EPOCH":"2643","INCLINATION":"97.6583","EPOCH":"2023-01-08T22:17:41.283456","MEAN_MOTION":"15.01262625","SITE":"AFWTR","NORAD_CAT_ID":"53211","APOAPSIS":"564.108","ARG_OF_PERICENTER":"72.2557","OBJECT_TYPE":"PAYLOAD","MEAN_MOTION_DOT":"0.00004911","REF_FRAME":"TEME","TIME_SYSTEM":"UTC","PERIAPSIS":"561.899","COUNTRY_CODE":"US"},{"EPOCH":"2023-01-08T19:11:02.264928","REV_AT_EPOCH":"2589","INCLINATION":"97.6571","TLE_LINE1":"1 53212U 22084Z   23008.79933177  .00002338  00000-0  18652-3 0  9999","ELEMENT_SET_NO":"999","OBJECT_ID":"2022-084Z","EPHEMERIS_TYPE":"0","MEAN_ANOMALY":"270.6708","PERIOD":"95.919","ECCENTRICITY":"0.00017140","TLE_LINE2":"2 53212  97.6571  72.1269 0001714  89.4712 270.6708 15.01268074 25899","LAUNCH_DATE":"2022-07-22","GP_ID":"222501407","FILE":"3736460","OBJECT_NAME":"STARLINK-4416","BSTAR":"0.00018652000000","RA_OF_ASC_NODE":"72.1269","RCS_SIZE":"LARGE","MEAN_MOTION_DDOT":"0.0000000000000","CENTER_NAME":"EARTH","SEMIMAJOR_AXIS":"6941.122","DECAY_DATE":null,"CLASSIFICATION_TYPE":"U","MEAN_ELEMENT_THEORY":"SGP4","COUNTRY_CODE":"US","TIME_SYSTEM":"UTC","PERIAPSIS":"561.797","REF_FRAME":"TEME","NORAD_CAT_ID":"53212","APOAPSIS":"564.177","ARG_OF_PERICENTER":"89.4712","OBJECT_TYPE":"PAYLOAD","MEAN_MOTION_DOT":"0.00002338","SITE":"AFWTR","MEAN_MOTION":"15.01268074"},{"COUNTRY_CODE":"US","REF_FRAME":"TEME","TIME_SYSTEM":"UTC","PERIAPSIS":"561.791","SITE":"AFWTR","ARG_OF_PERICENTER":"65.2958","MEAN_MOTION_DOT":"0.00003590","OBJECT_TYPE":"PAYLOAD","NORAD_CAT_ID":"53213","APOAPSIS":"564.200","MEAN_MOTION":"15.01265309","REV_AT_EPOCH":"2643","INCLINATION":"97.6609","EPOCH":"2023-01-08T22:09:40.761216","MEAN_ANOMALY":"294.8447","EPHEMERIS_TYPE":"0","ELEMENT_SET_NO":"999","OBJECT_ID":"2022-084AA","TLE_LINE1":"1 53213U 22084AA  23008.92338844  .00003590  00000-0  28388-3 0  9993","FILE":"3736460","GP_ID":"222500259","OBJECT_NAME":"STARLINK-4414","BSTAR":"0.00028388000000","ECCENTRICITY":"0.00017350","PERIOD":"95.919","TLE_LINE2":"2 53213  97.6609  72.2651 0001735  65.2958 294.8447 15.01265309 26432","LAUNCH_DATE":"2022-07-22","MEAN_ELEMENT_THEORY":"SGP4","CLASSIFICATION_TYPE":"U","DECAY_DATE":null,"SEMIMAJOR_AXIS":"6941.130","RA_OF_ASC_NODE":"72.2651","RCS_SIZE":"LARGE","CENTER_NAME":"EARTH","MEAN_MOTION_DDOT":"0.0000000000000"},{"ELEMENT_SET_NO":"999","OBJECT_ID":"2022-084AB","TLE_LINE1":"1 53214U 22084AB  23008.93079637  .00006986  00000-0  54776-3 0  9999","MEAN_ANOMALY":"281.5964","EPHEMERIS_TYPE":"0","EPOCH":"2023-01-08T22:20:20.806368","REV_AT_EPOCH":"2591","INCLINATION":"97.6571","RA_OF_ASC_NODE":"72.2579","RCS_SIZE":"LARGE","MEAN_MOTION_DDOT":"0.0000000000000","CENTER_NAME":"EARTH","CLASSIFICATION_TYPE":"U","MEAN_ELEMENT_THEORY":"SGP4","SEMIMAJOR_AXIS":"6941.104","DECAY_DATE":null,"ECCENTRICITY":"0.00014450","PERIOD":"95.919","LAUNCH_DATE":"2022-07-22","TLE_LINE2":"2 53214  97.6571  72.2579 0001445  78.5422 281.5964 15.01273790 25913","FILE":"3736460","GP_ID":"222500489","OBJECT_NAME":"STARLINK-4353","BSTAR":"0.00054776000000","TIME_SYSTEM":"UTC","PERIAPSIS":"561.966","REF_FRAME":"TEME","COUNTRY_CODE":"US","MEAN_MOTION":"15.01273790","ARG_OF_PERICENTER":"78.5422","MEAN_MOTION_DOT":"0.00006986","OBJECT_TYPE":"PAYLOAD","NORAD_CAT_ID":"53214","APOAPSIS":"563.972","SITE":"AFWTR"},{"MEAN_MOTION":"15.01256404","SITE":"AFWTR","ARG_OF_PERICENTER":"44.2075","OBJECT_TYPE":"PAYLOAD","MEAN_MOTION_DOT":"0.00003067","NORAD_CAT_ID":"53215","APOAPSIS":"564.518","REF_FRAME":"TEME","TIME_SYSTEM":"UTC","PERIAPSIS":"561.528","COUNTRY_CODE":"US","CLASSIFICATION_TYPE":"U","MEAN_ELEMENT_THEORY":"SGP4","DECAY_DATE":null,"SEMIMAJOR_AXIS":"6941.158","RA_OF_ASC_NODE":"72.2626","RCS_SIZE":"LARGE","CENTER_NAME":"EARTH","MEAN_MOTION_DDOT":"0.0000000000000","GP_ID":"222501636","OBJECT_NAME":"STARLINK-4335","FILE":"3736460","BSTAR":"0.00024333000000","ECCENTRICITY":"0.00021540","PERIOD":"95.920","TLE_LINE2":"2 53215  97.6599  72.2626 0002154  44.2075 315.9321 15.01256404 26439","LAUNCH_DATE":"2022-07-22","MEAN_ANOMALY":"315.9321","EPHEMERIS_TYPE":"0","ELEMENT_SET_NO":"999","OBJECT_ID":"2022-084AC","TLE_LINE1":"1 53215U 22084AC  23008.92154261  .00003067  00000-0  24333-3 0  9999","REV_AT_EPOCH":"2643","INCLINATION":"97.6599","EPOCH":"2023-01-08T22:07:01.281504"},{"BSTAR":"0.00052583000000","GP_ID":"222501865","OBJECT_NAME":"STARLINK-4376","FILE":"3736460","LAUNCH_DATE":"2022-07-22","TLE_LINE2":"2 53216  97.6580  72.2554 0001879  71.1733 288.9695 15.01266746 25918","PERIOD":"95.919","ECCENTRICITY":"0.00018790","SEMIMAJOR_AXIS":"6941.126","DECAY_DATE":null,"CLASSIFICATION_TYPE":"U","MEAN_ELEMENT_THEORY":"SGP4","MEAN_MOTION_DDOT":"0.0000000000000","CENTER_NAME":"EARTH","RA_OF_ASC_NODE":"72.2554","RCS_SIZE":"LARGE","INCLINATION":"97.6580","REV_AT_EPOCH":"2591","EPOCH":"2023-01-08T22:15:01.329408","EPHEMERIS_TYPE":"0","MEAN_ANOMALY":"288.9695","TLE_LINE1":"1 53216U 22084AD  23008.92709872  .00006703  00000-0  52583-3 0  9992","ELEMENT_SET_NO":"999","OBJECT_ID":"2022-084AD","SITE":"AFWTR","APOAPSIS":"564.295","NORAD_CAT_ID":"53216","MEAN_MOTION_DOT":"0.00006703","OBJECT_TYPE":"PAYLOAD","ARG_OF_PERICENTER":"71.1733","MEAN_MOTION":"15.01266746","COUNTRY_CODE":"US","REF_FRAME":"TEME","PERIAPSIS":"561.687","TIME_SYSTEM":"UTC"}];
